#aV2008  3 24  0  0   .00000000      96 DD+AD WGS84 FIT  NGA
## 1472  86400.00000000   900.00000000 54549  .0000000000000
+   31     2  3  4  5  6  7  8  9 10 11 12 13 14 15 16 17 18
+         19 20 21 22 23 24 25 26 27 28 29 30 31 32  0  0  0
+          0  0  0  0  0  0  0  0  0  0  0  0  0  0  0  0  0
+          0  0  0  0  0  0  0  0  0  0  0  0  0  0  0  0  0
+          0  0  0  0  0  0  0  0  0  0  0  0  0  0  0  0  0
++         0  0  0  0  0  0  0  0  0  0  0  0  0  0  0  0  0
++         0  0  0  0  0  0  0  0  0  0  0  0  0  0  0  0  0
++         0  0  0  0  0  0  0  0  0  0  0  0  0  0  0  0  0
++         0  0  0  0  0  0  0  0  0  0  0  0  0  0  0  0  0
++         0  0  0  0  0  0  0  0  0  0  0  0  0  0  0  0  0
%c cc cc ccc ccc cccc cccc cccc cccc ccccc ccccc ccccc ccccc
%c cc cc ccc ccc cccc cccc cccc cccc ccccc ccccc ccccc ccccc
%f  0.0000000  0.000000000  0.00000000000  0.000000000000000
%f  0.0000000  0.000000000  0.00000000000  0.000000000000000
%i    0    0    0    0      0      0      0      0         0
%i    0    0    0    0      0      0      0      0         0
/*      NGA, ST. LOUIS,MO.                                  
/*   EPHEMERIS COMPUTED FROM  3 DAYS OF DATA                
/* CCCCCCCCCCCCCCCCCCCCCCCCCCCCCCCCCCCCCCCCCCCCCCCCCCCCCCCCC
/* CCCCCCCCCCCCCCCCCCCCCCCCCCCCCCCCCCCCCCCCCCCCCCCCCCCCCCCCC
*  2008  3 24 18 30   .00000000                                                 
P  2  21786.141455  -9437.065900 -11725.464928    184.815211                    
V  2  -8454.331223  12496.540312 -26492.230779       .031466                    
P  3 -14428.453785   6594.774990  21038.114769    204.752017                    
V  3  -9670.914367 -25699.657608   1755.130488       .052474                    
P  4  18839.987079   1108.157196 -18923.538442    -32.462919                    
V  4 -16331.844957  17318.519971 -14960.792966      -.073833                    
P  5   -280.206086 -15980.355902 -21489.311884    731.252551                    
V  5  26307.319392   4743.547610  -3776.033018       .109027                    
P  6 -15662.411659 -16202.700980  14229.628147     76.115875                    
V  6  -2373.782678 -17887.332727 -23304.581947       .141259                    
P  7   -757.681501  18822.851513  18677.854265    -94.779868                    
V  7 -18166.085720  15419.861449 -16316.640460       .151789                    
P  8  11955.263773   8974.744097  21902.115389   -146.174843                    
V  8 -21055.541591  18325.045991   3516.767182      -.015302                    
P  9  12887.145309 -21737.320479  -8505.941325    116.698538                    
V  9   8615.709913  -5564.884021  29595.262063       .017677                    
P 10  22602.346638  -2869.791956  13788.046889   -340.218947                    
V 10  16198.351623   7141.151795 -24497.664885      -.394656                    
P 11  -8122.782152  23608.154580  -8739.017157     26.724327                    
V 11 -10298.075722   6340.277207  27495.875873      -.001781                    
P 12   5731.582390 -14049.114394 -21700.882888   -358.433492                    
V 12  26616.994505   7952.241095   1957.058129      -.003871                    
P 13   6324.455827  25743.519065   1786.370331    247.080485                    
V 13  -1174.252840   2678.983440 -32385.199912       .019525                    
P 14 -14083.906064 -16050.770366 -15754.969446   -284.560068                    
V 14  -2989.188260 -19912.124988  22725.687036       .039088                    
P 15   9002.819723 -16910.230961  18417.851071    -88.957424                    
V 15   7343.895107  22218.601057  16835.519198      -.043325                    
P 16 -24672.049604   -246.165666  10154.960113    130.630816                    
V 16 -11497.859327  -5870.219733 -28100.536755      -.010764                    
P 17  14734.047422  16087.909064 -15227.902663     40.690862                    
V 17   2538.059352  19261.823906  22603.131013      -.004235                    
P 18 -13073.019610 -16692.564975  16380.786051   -193.542639                    
V 18  19927.371328   4639.758020  20501.253646       .033868                    
P 19  -9902.713395  16831.800463  18007.712871     25.228134                    
V 19  -5619.841287 -22130.242820  17848.705630       .012029                    
P 20  -3203.026449  15235.002935 -21636.724583    117.942262                    
V 20 -26314.119307  -7061.468478  -1034.638351      -.008029                    
P 21  -5257.569348 -15829.876533  20722.869636     68.770319                    
V 21  20121.949694 -16745.901693  -8353.739635      -.009468                    
P 22 -23261.949168 -11825.824512   5223.898882    209.899252                    
V 22   7112.405305   -907.410564  30461.396607       .002982                    
P 23  -2028.693154  23915.893570 -11182.069708    343.130503                    
V 23  -5575.670865 -13216.183000 -27648.051374       .025584                    
P 24   8879.005035 -20954.754425  14093.932752     80.764897                    
V 24  14597.479418  -9906.045993 -23935.410877       .031189                    
P 25  -4276.529664  21492.748119  15492.085815    -20.567266                    
V 25 -13646.031338  13257.130373 -22521.162586      -.343893                    
P 26  10707.463321 -12834.364186  20008.235896    215.409374                    
V 26   6312.645973  25825.401259  13421.403354       .090919                    
P 27   3774.069152  16948.091233  20728.809918    176.595471                    
V 27 -17482.844580  17679.056732 -11806.830521       .025785                    
P 28  22223.919358  12826.071345   7890.816789    -16.915217                    
V 28  -9646.675449   -737.797839  29473.774850      -.004653                    
P 29  -4741.956927 -26090.243262  -1630.755776    -47.288611                    
V 29   3236.260266   1533.800743 -31634.376362       .025435                    
P 30  -7379.742719 -16494.111142 -19831.460726     69.066614                    
V 30  24052.552773   4693.391143 -12974.345629       .016613                    
P 31 -19251.859682   1282.838618 -18089.488188    -13.922975                    
V 31  15737.646418 -17300.269757 -17669.012695      -.013512                    
P 32 -24428.527048  -2356.607737  -9531.724865    256.315101                    
V 32 -11017.979716  -6902.958316  28818.139405       .075244                    
EOF
